{"type": "FeatureCollection", "features": [ {"type": "Feature", "properties": {"norad_id": 66634, "name": "STARLINK-35967", "group": "last-30-days", "lat": 52.16689036218095, "lon": -109.71089917293558, "alt_km": 440.09515571120573, "timestamp": "2025-12-21T14:40:46.632680+00:00", "meta": {"OBJECT_NAME": "STARLINK-35967", "OBJECT_ID": "2025-271T", "EPOCH": "2025-12-21T03:20:43.264032", "MEAN_MOTION": 15.39632042, "ECCENTRICITY": 2.013e-05, "INCLINATION": 53.1602, "RA_OF_ASC_NODE": 147.3923, "ARG_OF_PERICENTER": 11.2586, "MEAN_ANOMALY": 348.8423, "EPHEMERIS_TYPE": 0, "CLASSIFICATION_TYPE": "U", "NORAD_CAT_ID": 66634, "ELEMENT_SET_NO": 999, "REV_AT_EPOCH": 546, "BSTAR": 0.00071777015, "MEAN_MOTION_DOT": 0.00028429, "MEAN_MOTION_DDOT": 0}, "tle": {"line1": "1 66634U 25271T   25355.13938963  .00028429  00000+0  71777-3 0  9990", "line2": "2 66634  53.1602 147.3923 0000201  11.2586 348.8423 15.39632042  5461"}}, "geometry": {"type": "Point", "coordinates": [-109.71089917293558, 52.16689036218095]}}, {"type": "Feature", "properties": {"norad_id": 66635, "name": "STARLINK-35955", "group": "last-30-days", "lat": 22.98428444725513, "lon": -53.4757562960578, "alt_km": 444.2471491069291, "timestamp": "2025-12-21T14:40:46.632690+00:00", "meta": {"OBJECT_NAME": "STARLINK-35955", "OBJECT_ID": "2025-271U", "EPOCH": "2025-12-21T03:07:21.122976", "MEAN_MOTION": 15.39633709, "ECCENTRICITY": 0.00010144, "INCLINATION": 53.1604, "RA_OF_ASC_NODE": 147.3353, "ARG_OF_PERICENTER": 89.6852, "MEAN_ANOMALY": 270.4269, "EPHEMERIS_TYPE": 0, "CLASSIFICATION_TYPE": "U", "NORAD_CAT_ID": 66635, "ELEMENT_SET_NO": 999, "REV_AT_EPOCH": 550, "BSTAR": 0.00076071798, "MEAN_MOTION_DOT": 0.00030162, "MEAN_MOTION_DDOT": 0}, "tle": {"line1": "1 66635U 25271U   25355.13010559  .00030162  00000+0  76072-3 0  9993", "line2": "2 66635  53.1604 147.3353 0001014  89.6852 270.4269 15.39633709  5503"}}, "geometry": {"type": "Point", "coordinates": [-53.4757562960578, 22.98428444725513]}}, {"type": "Feature", "properties": {"norad_id": 66636, "name": "STARLINK-35968", "group": "last-30-days", "lat": 40.95925000039994, "lon": -75.48285555262511, "alt_km": 441.33268495464927, "timestamp": "2025-12-21T14:40:46.632701+00:00", "meta": {"OBJECT_NAME": "STARLINK-35968", "OBJECT_ID": "2025-271V", "EPOCH": "2025-12-21T03:14:02.393088", "MEAN_MOTION": 15.39628525, "ECCENTRICITY": 9.786e-05, "INCLINATION": 53.1622, "RA_OF_ASC_NODE": 147.3616, "ARG_OF_PERICENTER": 71.64, "MEAN_ANOMALY": 288.4711, "EPHEMERIS_TYPE": 0, "CLASSIFICATION_TYPE": "U", "NORAD_CAT_ID": 66636, "ELEMENT_SET_NO": 999, "REV_AT_EPOCH": 550, "BSTAR": 0.00071528758, "MEAN_MOTION_DOT": 0.00028325, "MEAN_MOTION_DDOT": 0}, "tle": {"line1": "1 66636U 25271V   25355.13474992  .00028325  00000+0  71529-3 0  9999", "line2": "2 66636  53.1622 147.3616 0000978  71.6400 288.4711 15.39628525  5505"}}, "geometry": {"type": "Point", "coordinates": [-75.48285555262511, 40.95925000039994]}}, {"type": "Feature", "properties": {"norad_id": 66637, "name": "STARLINK-35953", "group": "last-30-days", "lat": 2.8063898846027495, "lon": -37.09300926309074, "alt_km": 447.6549647546126, "timestamp": "2025-12-21T14:40:46.632713+00:00", "meta": {"OBJECT_NAME": "STARLINK-35953", "OBJECT_ID": "2025-271W", "EPOCH": "2025-12-21T06:00:00.999648", "MEAN_MOTION": 15.3957733, "ECCENTRICITY": 0.00010038, "INCLINATION": 53.1592, "RA_OF_ASC_NODE": 146.7177, "ARG_OF_PERICENTER": 93.1677, "MEAN_ANOMALY": 237.6743, "EPHEMERIS_TYPE": 0, "CLASSIFICATION_TYPE": "U", "NORAD_CAT_ID": 66637, "ELEMENT_SET_NO": 999, "REV_AT_EPOCH": 561, "BSTAR": 0.0015998269, "MEAN_MOTION_DOT": 0.00064041, "MEAN_MOTION_DDOT": 0}, "tle": {"line1": "1 66637U 25271W   25355.25001157  .00064041  00000+0  15998-2 0  9994", "line2": "2 66637  53.1592 146.7177 0001003  93.1677 237.6743 15.39577330  5612"}}, "geometry": {"type": "Point", "coordinates": [-37.09300926309074, 2.8063898846027495]}}, {"type": "Feature", "properties": {"norad_id": 66638, "name": "STARLINK-35972", "group": "last-30-days", "lat": -36.39468715970737, "lon": -1.5409755303044579, "alt_km": 451.7148853824492, "timestamp": "2025-12-21T14:40:46.632726+00:00", "meta": {"OBJECT_NAME": "STARLINK-35972", "OBJECT_ID": "2025-271X", "EPOCH": "2025-12-21T06:00:00.999648", "MEAN_MOTION": 15.39589062, "ECCENTRICITY": 0.00011985, "INCLINATION": 53.1597, "RA_OF_ASC_NODE": 146.6154, "ARG_OF_PERICENTER": 113.3752, "MEAN_ANOMALY": 268.8532, "EPHEMERIS_TYPE": 0, "CLASSIFICATION_TYPE": "U", "NORAD_CAT_ID": 66638, "ELEMENT_SET_NO": 999, "REV_AT_EPOCH": 561, "BSTAR": 0.0015901799, "MEAN_MOTION_DOT": 0.00063674, "MEAN_MOTION_DDOT": 0}, "tle": {"line1": "1 66638U 25271X   25355.25001157  .00063674  00000+0  15902-2 0  9991", "line2": "2 66638  53.1597 146.6154 0001198 113.3752 268.8532 15.39589062  5613"}}, "geometry": {"type": "Point", "coordinates": [-1.5409755303044579, -36.39468715970737]}}, {"type": "Feature", "properties": {"norad_id": 66639, "name": "STARLINK-35908", "group": "last-30-days", "lat": -50.15813524364771, "lon": 28.8191636010245, "alt_km": 452.8736004172624, "timestamp": "2025-12-21T14:40:46.632737+00:00", "meta": {"OBJECT_NAME": "STARLINK-35908", "OBJECT_ID": "2025-271Y", "EPOCH": "2025-12-21T06:00:00.999648", "MEAN_MOTION": 15.39583224, "ECCENTRICITY": 0.00013777, "INCLINATION": 53.1603, "RA_OF_ASC_NODE": 146.5631, "ARG_OF_PERICENTER": 81.1933, "MEAN_ANOMALY": 326.8918, "EPHEMERIS_TYPE": 0, "CLASSIFICATION_TYPE": "U", "NORAD_CAT_ID": 66639, "ELEMENT_SET_NO": 999, "REV_AT_EPOCH": 561, "BSTAR": 0.0016572809, "MEAN_MOTION_DOT": 0.00066389, "MEAN_MOTION_DDOT": 0}, "tle": {"line1": "1 66639U 25271Y   25355.25001157  .00066389  00000+0  16573-2 0  9993", "line2": "2 66639  53.1603 146.5631 0001377  81.1933 326.8918 15.39583224  5610"}}, "geometry": {"type": "Point", "coordinates": [28.8191636010245, -50.15813524364771]}}, {"type": "Feature", "properties": {"norad_id": 66640, "name": "STARLINK-35921", "group": "last-30-days", "lat": -17.627971776513064, "lon": -21.256177146878258, "alt_km": 450.05750471328884, "timestamp": "2025-12-21T14:40:46.632747+00:00", "meta": {"OBJECT_NAME": "STARLINK-35921", "OBJECT_ID": "2025-271Z", "EPOCH": "2025-12-21T06:00:00.999648", "MEAN_MOTION": 15.39578683, "ECCENTRICITY": 8.095e-05, "INCLINATION": 53.159, "RA_OF_ASC_NODE": 146.6659, "ARG_OF_PERICENTER": 114.3685, "MEAN_ANOMALY": 242.2263, "EPHEMERIS_TYPE": 0, "CLASSIFICATION_TYPE": "U", "NORAD_CAT_ID": 66640, "ELEMENT_SET_NO": 999, "REV_AT_EPOCH": 561, "BSTAR": 0.0016106494, "MEAN_MOTION_DOT": 0.00064484, "MEAN_MOTION_DDOT": 0}, "tle": {"line1": "1 66640U 25271Z   25355.25001157  .00064484  00000+0  16106-2 0  9991", "line2": "2 66640  53.1590 146.6659 0000809 114.3685 242.2263 15.39578683  5617"}}, "geometry": {"type": "Point", "coordinates": [-21.256177146878258, -17.627971776513064]}}, {"type": "Feature", "properties": {"norad_id": 66641, "name": "STARLINK-35923", "group": "last-30-days", "lat": -40.92904935142119, "lon": 104.2075025201018, "alt_km": 434.61666240259, "timestamp": "2025-12-21T14:40:46.632757+00:00", "meta": {"OBJECT_NAME": "STARLINK-35923", "OBJECT_ID": "2025-271AA", "EPOCH": "2025-12-21T06:00:00.999648", "MEAN_MOTION": 15.45505367, "ECCENTRICITY": 0.00011338, "INCLINATION": 53.1605, "RA_OF_ASC_NODE": 146.475, "ARG_OF_PERICENTER": 71.3156, "MEAN_ANOMALY": 20.5211, "EPHEMERIS_TYPE": 0, "CLASSIFICATION_TYPE": "U", "NORAD_CAT_ID": 66641, "ELEMENT_SET_NO": 999, "REV_AT_EPOCH": 561, "BSTAR": 0.0015529347, "MEAN_MOTION_DOT": 0.00076, "MEAN_MOTION_DDOT": 0}, "tle": {"line1": "1 66641U 25271AA  25355.25001157  .00076000  00000+0  15529-2 0  9997", "line2": "2 66641  53.1605 146.4750 0001133  71.3156  20.5211 15.45505367  5617"}}, "geometry": {"type": "Point", "coordinates": [104.2075025201018, -40.92904935142119]}}, {"type": "Feature", "properties": {"norad_id": 66642, "name": "STARLINK-35926", "group": "last-30-days", "lat": -35.69575634844167, "lon": 112.14572100672524, "alt_km": 432.01366647231134, "timestamp": "2025-12-21T14:40:46.632768+00:00", "meta": {"OBJECT_NAME": "STARLINK-35926", "OBJECT_ID": "2025-271AB", "EPOCH": "2025-12-19T17:55:19.162848", "MEAN_MOTION": 15.47687763, "ECCENTRICITY": 0.0001998, "INCLINATION": 53.1589, "RA_OF_ASC_NODE": 153.6296, "ARG_OF_PERICENTER": 136.7356, "MEAN_ANOMALY": 223.381, "EPHEMERIS_TYPE": 0, "CLASSIFICATION_TYPE": "U", "NORAD_CAT_ID": 66642, "ELEMENT_SET_NO": 999, "REV_AT_EPOCH": 525, "BSTAR": -0.0052165, "MEAN_MOTION_DOT": -0.0026545, "MEAN_MOTION_DDOT": 0}, "tle": {"line1": "1 66642U 25271AB  25353.74674957 -.00265450  00000+0 -52165-2 0  9992", "line2": "2 66642  53.1589 153.6296 0001998 136.7356 223.3810 15.47687763  5252"}}, "geometry": {"type": "Point", "coordinates": [112.14572100672524, -35.69575634844167]}}, {"type": "Feature", "properties": {"norad_id": 66643, "name": "STARLINK-35918", "group": "last-30-days", "lat": -52.1321489329146, "lon": 70.19599114940274, "alt_km": 452.87880602774203, "timestamp": "2025-12-21T14:40:46.632780+00:00", "meta": {"OBJECT_NAME": "STARLINK-35918", "OBJECT_ID": "2025-271AC", "EPOCH": "2025-12-21T06:00:00.999648", "MEAN_MOTION": 15.39557857, "ECCENTRICITY": 0.00012131, "INCLINATION": 53.1605, "RA_OF_ASC_NODE": 146.5124, "ARG_OF_PERICENTER": 90.8844, "MEAN_ANOMALY": 342.9922, "EPHEMERIS_TYPE": 0, "CLASSIFICATION_TYPE": "U", "NORAD_CAT_ID": 66643, "ELEMENT_SET_NO": 999, "REV_AT_EPOCH": 561, "BSTAR": 0.0018334774, "MEAN_MOTION_DOT": 0.00073497, "MEAN_MOTION_DDOT": 0}, "tle": {"line1": "1 66643U 25271AC  25355.25001157  .00073497  00000+0  18335-2 0  9994", "line2": "2 66643  53.1605 146.5124 0001213  90.8844 342.9922 15.39557857  5618"}}, "geometry": {"type": "Point", "coordinates": [70.19599114940274, -52.1321489329146]}}]}